start=new Date('2023-02-10T00:00:00.000Z').valueOf();
sats=[{"TLE_LINE1":"1 51895U 22022AV  23040.37410716  .00036724  00000-0  23136-2 0  9993","APOAPSIS":"540.839","DECAY_DATE":null,"MEAN_MOTION":"15.08839109","LAUNCH_DATE":"2022-03-03","ECCENTRICITY":"0.00015770","RA_OF_ASC_NODE":"6.3758","OBJECT_TYPE":"PAYLOAD","GP_ID":"224928203","SITE":"AFETR","INCLINATION":"53.2170","PERIOD":"95.438","CLASSIFICATION_TYPE":"U","OBJECT_NAME":"STARLINK-3594","ARG_OF_PERICENTER":"111.1092","EPOCH":"2023-02-09T08:58:42.858624","RCS_SIZE":"LARGE","BSTAR":"0.00231360000000","ELEMENT_SET_NO":"999","MEAN_ANOMALY":"249.0069","EPHEMERIS_TYPE":"0","NORAD_CAT_ID":"51895","REV_AT_EPOCH":"5351","FILE":"3782869","MEAN_ELEMENT_THEORY":"SGP4","SEMIMAJOR_AXIS":"6917.883","COUNTRY_CODE":"US","MEAN_MOTION_DOT":"0.00036724","TIME_SYSTEM":"UTC","TLE_LINE2":"2 51895  53.2170   6.3758 0001577 111.1092 249.0069 15.08839109 53510","REF_FRAME":"TEME","MEAN_MOTION_DDOT":"0.0000000000000","OBJECT_ID":"2022-022AV","CENTER_NAME":"EARTH","PERIAPSIS":"538.657"},{"MEAN_MOTION_DDOT":"0.0000000000000","REF_FRAME":"TEME","OBJECT_ID":"2022-022AW","CENTER_NAME":"EARTH","PERIAPSIS":"538.590","SEMIMAJOR_AXIS":"6917.819","COUNTRY_CODE":"US","MEAN_ELEMENT_THEORY":"SGP4","FILE":"3782867","MEAN_MOTION_DOT":"0.00033244","TLE_LINE2":"2 51896  53.2167   6.3720 0001582  79.0282 281.0888 15.08859945 53565","TIME_SYSTEM":"UTC","ELEMENT_SET_NO":"999","RCS_SIZE":"LARGE","BSTAR":"0.00209590000000","NORAD_CAT_ID":"51896","EPHEMERIS_TYPE":"0","REV_AT_EPOCH":"5356","MEAN_ANOMALY":"281.0888","ARG_OF_PERICENTER":"79.0282","EPOCH":"2023-02-09T09:00:05.787936","CLASSIFICATION_TYPE":"U","OBJECT_NAME":"STARLINK-3593","SITE":"AFETR","PERIOD":"95.436","INCLINATION":"53.2167","OBJECT_TYPE":"PAYLOAD","GP_ID":"224928185","LAUNCH_DATE":"2022-03-03","RA_OF_ASC_NODE":"6.3720","ECCENTRICITY":"0.00015820","TLE_LINE1":"1 51896U 22022AW  23040.37506699  .00033244  00000-0  20959-2 0  9994","APOAPSIS":"540.779","DECAY_DATE":null,"MEAN_MOTION":"15.08859945"},{"CLASSIFICATION_TYPE":"U","OBJECT_NAME":"STARLINK-3598","SITE":"AFETR","INCLINATION":"53.2163","PERIOD":"95.437","OBJECT_TYPE":"PAYLOAD","GP_ID":"224912602","LAUNCH_DATE":"2022-03-03","RA_OF_ASC_NODE":"6.6892","ECCENTRICITY":"0.00012120","TLE_LINE1":"1 51897U 22022AX  23040.30419119  .00033795  00000-0  21305-2 0  9995","APOAPSIS":"540.541","DECAY_DATE":null,"MEAN_MOTION":"15.08853895","REF_FRAME":"TEME","MEAN_MOTION_DDOT":"0.0000000000000","OBJECT_ID":"2022-022AX","CENTER_NAME":"EARTH","PERIAPSIS":"538.864","SEMIMAJOR_AXIS":"6917.838","COUNTRY_CODE":"US","FILE":"3782313","MEAN_ELEMENT_THEORY":"SGP4","MEAN_MOTION_DOT":"0.00033795","TLE_LINE2":"2 51897  53.2163   6.6892 0001212  72.7334 287.3790 15.08853895 53506","TIME_SYSTEM":"UTC","RCS_SIZE":"LARGE","ELEMENT_SET_NO":"999","BSTAR":"0.00213050000000","EPHEMERIS_TYPE":"0","NORAD_CAT_ID":"51897","REV_AT_EPOCH":"5350","MEAN_ANOMALY":"287.3790","ARG_OF_PERICENTER":"72.7334","EPOCH":"2023-02-09T07:18:02.118816"},{"OBJECT_NAME":"STARLINK-3597","CLASSIFICATION_TYPE":"U","SITE":"AFETR","PERIOD":"95.437","INCLINATION":"53.2157","OBJECT_TYPE":"PAYLOAD","GP_ID":"224959056","LAUNCH_DATE":"2022-03-03","ECCENTRICITY":"0.00014110","RA_OF_ASC_NODE":"4.9190","TLE_LINE1":"1 51898U 22022AY  23040.69796438  .00031494  00000-0  19880-2 0  9999","APOAPSIS":"540.716","DECAY_DATE":null,"MEAN_MOTION":"15.08841834","REF_FRAME":"TEME","MEAN_MOTION_DDOT":"0.0000000000000","OBJECT_ID":"2022-022AY","CENTER_NAME":"EARTH","PERIAPSIS":"538.764","SEMIMAJOR_AXIS":"6917.875","COUNTRY_CODE":"US","FILE":"3783241","MEAN_ELEMENT_THEORY":"SGP4","MEAN_MOTION_DOT":"0.00031494","TLE_LINE2":"2 51898  53.2157   4.9190 0001411  74.0190 286.0957 15.08841834 53611","TIME_SYSTEM":"UTC","ELEMENT_SET_NO":"999","RCS_SIZE":"LARGE","BSTAR":"0.00198800000000","NORAD_CAT_ID":"51898","EPHEMERIS_TYPE":"0","REV_AT_EPOCH":"5361","MEAN_ANOMALY":"286.0957","ARG_OF_PERICENTER":"74.0190","EPOCH":"2023-02-09T16:45:04.122432"},{"ARG_OF_PERICENTER":"106.0901","EPOCH":"2023-02-09T09:21:13.590432","BSTAR":"0.00001745500000","RCS_SIZE":"LARGE","ELEMENT_SET_NO":"999","MEAN_ANOMALY":"254.0248","REV_AT_EPOCH":"5255","NORAD_CAT_ID":"51956","EPHEMERIS_TYPE":"0","MEAN_ELEMENT_THEORY":"SGP4","FILE":"3783047","COUNTRY_CODE":"US","SEMIMAJOR_AXIS":"6917.848","TLE_LINE2":"2 51956  53.2172  36.3040 0001426 106.0901 254.0248 15.08850449 52550","TIME_SYSTEM":"UTC","MEAN_MOTION_DOT":"-0.00000010","OBJECT_ID":"2022-025A","MEAN_MOTION_DDOT":"0.0000000000000","REF_FRAME":"TEME","PERIAPSIS":"538.727","CENTER_NAME":"EARTH","APOAPSIS":"540.700","TLE_LINE1":"1 51956U 22025A   23040.38974063 -.00000010  00000-0  17455-4 0  9994","MEAN_MOTION":"15.08850449","DECAY_DATE":null,"LAUNCH_DATE":"2022-03-09","RA_OF_ASC_NODE":"36.3040","ECCENTRICITY":"0.00014260","GP_ID":"224932475","OBJECT_TYPE":"PAYLOAD","PERIOD":"95.437","INCLINATION":"53.2172","SITE":"AFETR","OBJECT_NAME":"STARLINK-3700","CLASSIFICATION_TYPE":"U"},{"ARG_OF_PERICENTER":"71.3674","EPOCH":"2023-02-09T16:51:40.939488","BSTAR":"0.00008825600000","RCS_SIZE":"LARGE","ELEMENT_SET_NO":"999","EPHEMERIS_TYPE":"0","NORAD_CAT_ID":"51957","REV_AT_EPOCH":"5151","MEAN_ANOMALY":"288.7486","SEMIMAJOR_AXIS":"6917.902","COUNTRY_CODE":"US","MEAN_ELEMENT_THEORY":"SGP4","FILE":"3783241","MEAN_MOTION_DOT":"0.00001117","TLE_LINE2":"2 51957  53.2189  34.8951 0001549  71.3674 288.7486 15.08832931 51519","TIME_SYSTEM":"UTC","MEAN_MOTION_DDOT":"0.0000000000000","REF_FRAME":"TEME","OBJECT_ID":"2022-025B","CENTER_NAME":"EARTH","PERIAPSIS":"538.695","TLE_LINE1":"1 51957U 22025B   23040.70255717  .00001117  00000-0  88256-4 0  9994","APOAPSIS":"540.839","DECAY_DATE":null,"MEAN_MOTION":"15.08832931","LAUNCH_DATE":"2022-03-09","RA_OF_ASC_NODE":"34.8951","ECCENTRICITY":"0.00015490","OBJECT_TYPE":"PAYLOAD","GP_ID":"224959058","CLASSIFICATION_TYPE":"U","OBJECT_NAME":"STARLINK-3694","SITE":"AFETR","INCLINATION":"53.2189","PERIOD":"95.438"},{"ELEMENT_SET_NO":"999","RCS_SIZE":"LARGE","BSTAR":"0.00062368000000","MEAN_ANOMALY":"277.6462","NORAD_CAT_ID":"51958","EPHEMERIS_TYPE":"0","REV_AT_EPOCH":"5151","ARG_OF_PERICENTER":"82.4789","EPOCH":"2023-02-09T17:12:52.935840","MEAN_MOTION_DDOT":"0.0000000000000","REF_FRAME":"TEME","OBJECT_ID":"2022-025C","CENTER_NAME":"EARTH","PERIAPSIS":"538.217","FILE":"3783241","MEAN_ELEMENT_THEORY":"SGP4","SEMIMAJOR_AXIS":"6917.929","COUNTRY_CODE":"US","MEAN_MOTION_DOT":"0.00009647","TLE_LINE2":"2 51958  53.2178  34.8300 0002279  82.4789 277.6462 15.08824145 51516","TIME_SYSTEM":"UTC","LAUNCH_DATE":"2022-03-09","ECCENTRICITY":"0.00022790","RA_OF_ASC_NODE":"34.8300","TLE_LINE1":"1 51958U 22025C   23040.71727935  .00009647  00000-0  62368-3 0  9993","APOAPSIS":"541.370","DECAY_DATE":null,"MEAN_MOTION":"15.08824145","SITE":"AFETR","INCLINATION":"53.2178","PERIOD":"95.439","CLASSIFICATION_TYPE":"U","OBJECT_NAME":"STARLINK-3692","OBJECT_TYPE":"PAYLOAD","GP_ID":"224959308"},{"ARG_OF_PERICENTER":"96.8670","EPOCH":"2023-02-09T20:07:45.117696","RCS_SIZE":"LARGE","BSTAR":"0.00073032000000","ELEMENT_SET_NO":"999","REV_AT_EPOCH":"5262","EPHEMERIS_TYPE":"0","NORAD_CAT_ID":"51959","MEAN_ANOMALY":"263.2496","COUNTRY_CODE":"US","SEMIMAJOR_AXIS":"6917.924","MEAN_ELEMENT_THEORY":"SGP4","FILE":"3783010","TIME_SYSTEM":"UTC","TLE_LINE2":"2 51959  53.2163  34.2777 0001536  96.8670 263.2496 15.08825577 52627","MEAN_MOTION_DOT":"0.00011350","OBJECT_ID":"2022-025D","REF_FRAME":"TEME","MEAN_MOTION_DDOT":"0.0000000000000","PERIAPSIS":"538.727","CENTER_NAME":"EARTH","APOAPSIS":"540.852","TLE_LINE1":"1 51959U 22025D   23040.83871664  .00011350  00000-0  73032-3 0  9990","MEAN_MOTION":"15.08825577","DECAY_DATE":null,"LAUNCH_DATE":"2022-03-09","RA_OF_ASC_NODE":"34.2777","ECCENTRICITY":"0.00015360","GP_ID":"224931594","OBJECT_TYPE":"PAYLOAD","CLASSIFICATION_TYPE":"U","OBJECT_NAME":"STARLINK-3704","PERIOD":"95.438","INCLINATION":"53.2163","SITE":"AFETR"},{"EPOCH":"2023-02-09T16:46:23.045376","ARG_OF_PERICENTER":"74.0543","REV_AT_EPOCH":"5151","NORAD_CAT_ID":"51960","EPHEMERIS_TYPE":"0","MEAN_ANOMALY":"286.0587","RCS_SIZE":"LARGE","BSTAR":"0.00247950000000","ELEMENT_SET_NO":"999","TLE_LINE2":"2 51960  53.2159  34.9175 0001248  74.0543 286.0587 15.08839521 51515","TIME_SYSTEM":"UTC","MEAN_MOTION_DOT":"0.00039394","COUNTRY_CODE":"US","SEMIMAJOR_AXIS":"6917.882","MEAN_ELEMENT_THEORY":"SGP4","FILE":"3783241","PERIAPSIS":"538.884","CENTER_NAME":"EARTH","OBJECT_ID":"2022-025E","REF_FRAME":"TEME","MEAN_MOTION_DDOT":"0.0000000000000","MEAN_MOTION":"15.08839521","DECAY_DATE":null,"APOAPSIS":"540.610","TLE_LINE1":"1 51960U 22025E   23040.69887784  .00039394  00000-0  24795-2 0  9995","ECCENTRICITY":"0.00012480","RA_OF_ASC_NODE":"34.9175","LAUNCH_DATE":"2022-03-09","GP_ID":"224960300","OBJECT_TYPE":"PAYLOAD","CLASSIFICATION_TYPE":"U","OBJECT_NAME":"STARLINK-3691","INCLINATION":"53.2159","PERIOD":"95.438","SITE":"AFETR"},{"REV_AT_EPOCH":"5151","EPHEMERIS_TYPE":"0","NORAD_CAT_ID":"51961","MEAN_ANOMALY":"276.1238","BSTAR":"0.00178470000000","RCS_SIZE":"LARGE","ELEMENT_SET_NO":"999","EPOCH":"2023-02-09T17:07:34.576896","ARG_OF_PERICENTER":"83.9857","PERIAPSIS":"539.092","CENTER_NAME":"EARTH","OBJECT_ID":"2022-025F","REF_FRAME":"TEME","MEAN_MOTION_DDOT":"0.0000000000000","TLE_LINE2":"2 51961  53.2142  34.8440 0000901  83.9857 276.1238 15.08849869 51513","TIME_SYSTEM":"UTC","MEAN_MOTION_DOT":"0.00028237","COUNTRY_CODE":"US","SEMIMAJOR_AXIS":"6917.850","FILE":"3783241","MEAN_ELEMENT_THEORY":"SGP4","ECCENTRICITY":"0.00009010","RA_OF_ASC_NODE":"34.8440","LAUNCH_DATE":"2022-03-09","MEAN_MOTION":"15.08849869","DECAY_DATE":null,"APOAPSIS":"540.339","TLE_LINE1":"1 51961U 22025F   23040.71359464  .00028237  00000-0  17847-2 0  9992","CLASSIFICATION_TYPE":"U","OBJECT_NAME":"STARLINK-3689","INCLINATION":"53.2142","PERIOD":"95.437","SITE":"AFETR","GP_ID":"224958559","OBJECT_TYPE":"PAYLOAD"}];
